[{"OBJECT_NAME":"OBJECT V","OBJECT_ID":"2025-155V","EPOCH":"2026-03-09T20:35:20.067360","MEAN_MOTION":15.27583301,"ECCENTRICITY":0.00080353,"INCLINATION":97.4485,"RA_OF_ASC_NODE":37.249,"ARG_OF_PERICENTER":152.8264,"MEAN_ANOMALY":207.3397,"EPHEMERIS_TYPE":0,"CLASSIFICATION_TYPE":"U","NORAD_CAT_ID":64895,"ELEMENT_SET_NO":999,"REV_AT_EPOCH":6557,"BSTAR":0.00051002361,"MEAN_MOTION_DOT":0.00013705,"MEAN_MOTION_DDOT":0},{"OBJECT_NAME":"STARLINK-36508","OBJECT_ID":"2026-005G","EPOCH":"2026-03-09T18:21:01.929024","MEAN_MOTION":15.27606918,"ECCENTRICITY":0.00029463,"INCLINATION":43.0018,"RA_OF_ASC_NODE":237.9375,"ARG_OF_PERICENTER":282.2963,"MEAN_ANOMALY":77.7559,"EPHEMERIS_TYPE":0,"CLASSIFICATION_TYPE":"U","NORAD_CAT_ID":67410,"ELEMENT_SET_NO":999,"REV_AT_EPOCH":870,"BSTAR":0.0012482144,"MEAN_MOTION_DOT":0.00034276,"MEAN_MOTION_DDOT":0}]
